start=new Date('2021-11-20T00:00:00.000Z').valueOf();
sats=[{"TLE_LINE2":"2 45181  53.0543 261.1078 0001716  65.9301 294.1868 15.06400078 97987","PERIAPSIS":"546.025","RCS_SIZE":"LARGE","DECAY_DATE":null,"ECCENTRICITY":"0.00017160","MEAN_MOTION":"15.06400078","REF_FRAME":"TEME","MEAN_ELEMENT_THEORY":"SGP4","OBJECT_TYPE":"PAYLOAD","EPOCH":"2021-11-19T05:50:32.470368","MEAN_MOTION_DDOT":"0.0000000000000","PERIOD":"95.592","GP_ID":"190073628","SEMIMAJOR_AXIS":"6925.348","NORAD_CAT_ID":"45181","TIME_SYSTEM":"UTC","ELEMENT_SET_NO":"999","CLASSIFICATION_TYPE":"U","APOAPSIS":"548.402","OBJECT_NAME":"STARLINK-1200","MEAN_MOTION_DOT":"0.00000424","RA_OF_ASC_NODE":"261.1078","ARG_OF_PERICENTER":"65.9301","OBJECT_ID":"2020-012D","FILE":"3219209","REV_AT_EPOCH":"9798","EPHEMERIS_TYPE":"0","BSTAR":"0.00004739200000","LAUNCH_DATE":"2020-02-17","COUNTRY_CODE":"US","MEAN_ANOMALY":"294.1868","CENTER_NAME":"EARTH","TLE_LINE1":"1 45181U 20012D   21323.24343137  .00000424  00000-0  47392-4 0  9991","SITE":"AFETR","INCLINATION":"53.0543"},{"SEMIMAJOR_AXIS":"6925.388","NORAD_CAT_ID":"45182","TIME_SYSTEM":"UTC","ELEMENT_SET_NO":"999","APOAPSIS":"548.537","CLASSIFICATION_TYPE":"U","OBJECT_NAME":"STARLINK-1201","MEAN_MOTION_DOT":"-0.00000358","RA_OF_ASC_NODE":"240.1401","ARG_OF_PERICENTER":"72.0466","OBJECT_ID":"2020-012E","FILE":"3219209","REV_AT_EPOCH":"9814","BSTAR":"-0.00000514000000","EPHEMERIS_TYPE":"0","LAUNCH_DATE":"2020-02-17","MEAN_ANOMALY":"288.0725","COUNTRY_CODE":"US","CENTER_NAME":"EARTH","TLE_LINE1":"1 45182U 20012E   21323.46275629 -.00000358  00000-0 -51400-5 0  9990","SITE":"AFETR","INCLINATION":"53.0550","PERIAPSIS":"545.969","TLE_LINE2":"2 45182  53.0550 240.1401 0001854  72.0466 288.0725 15.06387118 98149","RCS_SIZE":"LARGE","DECAY_DATE":null,"ECCENTRICITY":"0.00018540","MEAN_ELEMENT_THEORY":"SGP4","MEAN_MOTION":"15.06387118","REF_FRAME":"TEME","OBJECT_TYPE":"PAYLOAD","EPOCH":"2021-11-19T11:06:22.143456","MEAN_MOTION_DDOT":"0.0000000000000","PERIOD":"95.593","GP_ID":"190073379"},{"DECAY_DATE":null,"RCS_SIZE":"LARGE","TLE_LINE2":"2 45183  53.0548 260.6517 0001803  64.0118 296.1056 15.06394241 98008","PERIAPSIS":"545.983","GP_ID":"190072126","PERIOD":"95.593","MEAN_MOTION_DDOT":"0.0000000000000","EPOCH":"2021-11-19T08:19:09.886944","OBJECT_TYPE":"PAYLOAD","MEAN_MOTION":"15.06394241","REF_FRAME":"TEME","MEAN_ELEMENT_THEORY":"SGP4","ECCENTRICITY":"0.00018030","RA_OF_ASC_NODE":"260.6517","MEAN_MOTION_DOT":"0.00000004","OBJECT_NAME":"STARLINK-1202","CLASSIFICATION_TYPE":"U","APOAPSIS":"548.480","ELEMENT_SET_NO":"999","TIME_SYSTEM":"UTC","SEMIMAJOR_AXIS":"6925.366","NORAD_CAT_ID":"45183","INCLINATION":"53.0548","SITE":"AFETR","TLE_LINE1":"1 45183U 20012F   21323.34664221  .00000004  00000-0  19190-4 0  9993","CENTER_NAME":"EARTH","MEAN_ANOMALY":"296.1056","LAUNCH_DATE":"2020-02-17","COUNTRY_CODE":"US","BSTAR":"0.00001919000000","EPHEMERIS_TYPE":"0","REV_AT_EPOCH":"9800","FILE":"3219209","OBJECT_ID":"2020-012F","ARG_OF_PERICENTER":"64.0118"},{"PERIAPSIS":"545.987","TLE_LINE2":"2 45184  53.0528 240.0941 0001800  65.9796 294.1381 15.06393602 97333","DECAY_DATE":null,"RCS_SIZE":"LARGE","ECCENTRICITY":"0.00018000","PERIOD":"95.593","GP_ID":"190072377","OBJECT_TYPE":"PAYLOAD","REF_FRAME":"TEME","MEAN_MOTION":"15.06393602","MEAN_ELEMENT_THEORY":"SGP4","MEAN_MOTION_DDOT":"0.0000000000000","EPOCH":"2021-11-19T11:16:58.930464","ELEMENT_SET_NO":"999","TIME_SYSTEM":"UTC","NORAD_CAT_ID":"45184","SEMIMAJOR_AXIS":"6925.368","RA_OF_ASC_NODE":"240.0941","MEAN_MOTION_DOT":"-0.00002165","CLASSIFICATION_TYPE":"U","APOAPSIS":"548.480","OBJECT_NAME":"STARLINK-1205","LAUNCH_DATE":"2020-02-17","COUNTRY_CODE":"US","MEAN_ANOMALY":"294.1381","EPHEMERIS_TYPE":"0","BSTAR":"-0.00012649000000","OBJECT_ID":"2020-012G","ARG_OF_PERICENTER":"65.9796","REV_AT_EPOCH":"9733","FILE":"3219209","SITE":"AFETR","TLE_LINE1":"1 45184U 20012G   21323.47012651 -.00002165  00000-0 -12649-3 0  9995","INCLINATION":"53.0528","CENTER_NAME":"EARTH"},{"ELEMENT_SET_NO":"999","TIME_SYSTEM":"UTC","NORAD_CAT_ID":"45185","SEMIMAJOR_AXIS":"6925.378","RA_OF_ASC_NODE":"260.9828","MEAN_MOTION_DOT":"-0.00000329","CLASSIFICATION_TYPE":"U","APOAPSIS":"548.459","OBJECT_NAME":"STARLINK-1216","COUNTRY_CODE":"US","LAUNCH_DATE":"2020-02-17","MEAN_ANOMALY":"281.9527","EPHEMERIS_TYPE":"0","BSTAR":"-0.00000315600000","OBJECT_ID":"2020-012H","ARG_OF_PERICENTER":"78.1658","REV_AT_EPOCH":"9793","FILE":"3219209","SITE":"AFETR","TLE_LINE1":"1 45185U 20012H   21323.27292773 -.00000329  00000-0 -31560-5 0  9994","INCLINATION":"53.0548","CENTER_NAME":"EARTH","TLE_LINE2":"2 45185  53.0548 260.9828 0001755  78.1658 281.9527 15.06390267 97939","PERIAPSIS":"546.028","DECAY_DATE":null,"RCS_SIZE":"LARGE","ECCENTRICITY":"0.00017550","PERIOD":"95.593","GP_ID":"190073129","OBJECT_TYPE":"PAYLOAD","MEAN_MOTION":"15.06390267","REF_FRAME":"TEME","MEAN_ELEMENT_THEORY":"SGP4","MEAN_MOTION_DDOT":"0.0000000000000","EPOCH":"2021-11-19T06:33:00.955872"},{"ELEMENT_SET_NO":"999","TIME_SYSTEM":"UTC","SEMIMAJOR_AXIS":"6925.356","NORAD_CAT_ID":"45186","RA_OF_ASC_NODE":"261.5121","MEAN_MOTION_DOT":"-0.00000119","OBJECT_NAME":"STARLINK-1224","CLASSIFICATION_TYPE":"U","APOAPSIS":"548.396","LAUNCH_DATE":"2020-02-17","COUNTRY_CODE":"US","MEAN_ANOMALY":"292.0991","EPHEMERIS_TYPE":"0","BSTAR":"0.00001094800000","REV_AT_EPOCH":"9791","FILE":"3219209","OBJECT_ID":"2020-012J","ARG_OF_PERICENTER":"68.0179","INCLINATION":"53.0548","SITE":"AFETR","TLE_LINE1":"1 45186U 20012J   21323.15497088 -.00000119  00000-0  10948-4 0  9990","CENTER_NAME":"EARTH","PERIAPSIS":"546.046","TLE_LINE2":"2 45186  53.0548 261.5121 0001697  68.0179 292.0991 15.06397643 97915","DECAY_DATE":null,"RCS_SIZE":"LARGE","ECCENTRICITY":"0.00016970","GP_ID":"190073879","PERIOD":"95.592","MEAN_MOTION_DDOT":"0.0000000000000","EPOCH":"2021-11-19T03:43:09.484032","OBJECT_TYPE":"PAYLOAD","MEAN_ELEMENT_THEORY":"SGP4","MEAN_MOTION":"15.06397643","REF_FRAME":"TEME"},{"DECAY_DATE":null,"RCS_SIZE":"LARGE","TLE_LINE2":"2 45187  53.0536 261.1970 0001876  66.6850 293.4336 15.06402193 97971","PERIAPSIS":"545.908","PERIOD":"95.592","GP_ID":"190072626","OBJECT_TYPE":"PAYLOAD","MEAN_MOTION":"15.06402193","MEAN_ELEMENT_THEORY":"SGP4","REF_FRAME":"TEME","MEAN_MOTION_DDOT":"0.0000000000000","EPOCH":"2021-11-19T05:23:59.710560","ECCENTRICITY":"0.00018760","RA_OF_ASC_NODE":"261.1970","MEAN_MOTION_DOT":"-0.00000283","APOAPSIS":"548.506","CLASSIFICATION_TYPE":"U","OBJECT_NAME":"STARLINK-1225","ELEMENT_SET_NO":"999","TIME_SYSTEM":"UTC","SEMIMAJOR_AXIS":"6925.342","NORAD_CAT_ID":"45187","SITE":"AFETR","TLE_LINE1":"1 45187U 20012K   21323.22499665 -.00000283  00000-0 -12083-6 0  9999","INCLINATION":"53.0536","CENTER_NAME":"EARTH","LAUNCH_DATE":"2020-02-17","COUNTRY_CODE":"US","MEAN_ANOMALY":"293.4336","EPHEMERIS_TYPE":"0","BSTAR":"-0.00000012083000","OBJECT_ID":"2020-012K","ARG_OF_PERICENTER":"66.6850","REV_AT_EPOCH":"9797","FILE":"3219209"},{"DECAY_DATE":null,"RCS_SIZE":"LARGE","TLE_LINE2":"2 45188  53.0543 220.1798 0002049  69.0309 291.0899 15.06397851 98526","PERIAPSIS":"545.801","GP_ID":"190072877","PERIOD":"95.592","EPOCH":"2021-11-19T10:53:05.385120","MEAN_MOTION_DDOT":"0.0000000000000","MEAN_MOTION":"15.06397851","MEAN_ELEMENT_THEORY":"SGP4","REF_FRAME":"TEME","OBJECT_TYPE":"PAYLOAD","ECCENTRICITY":"0.00020490","MEAN_MOTION_DOT":"-0.00000286","RA_OF_ASC_NODE":"220.1798","OBJECT_NAME":"STARLINK-1228","CLASSIFICATION_TYPE":"U","APOAPSIS":"548.639","TIME_SYSTEM":"UTC","ELEMENT_SET_NO":"999","SEMIMAJOR_AXIS":"6925.355","NORAD_CAT_ID":"45188","INCLINATION":"53.0543","TLE_LINE1":"1 45188U 20012L   21323.45353455 -.00000286  00000-0 -27277-6 0  9995","SITE":"AFETR","CENTER_NAME":"EARTH","BSTAR":"-0.00000027277000","EPHEMERIS_TYPE":"0","COUNTRY_CODE":"US","LAUNCH_DATE":"2020-02-17","MEAN_ANOMALY":"291.0899","FILE":"3219209","REV_AT_EPOCH":"9852","ARG_OF_PERICENTER":"69.0309","OBJECT_ID":"2020-012L"},{"TIME_SYSTEM":"UTC","ELEMENT_SET_NO":"999","NORAD_CAT_ID":"45189","SEMIMAJOR_AXIS":"6925.348","MEAN_MOTION_DOT":"-0.00000158","RA_OF_ASC_NODE":"261.1829","OBJECT_NAME":"STARLINK-1230","CLASSIFICATION_TYPE":"U","APOAPSIS":"548.456","EPHEMERIS_TYPE":"0","BSTAR":"0.00000827200000","LAUNCH_DATE":"2020-02-17","COUNTRY_CODE":"US","MEAN_ANOMALY":"296.1676","FILE":"3219209","REV_AT_EPOCH":"9520","ARG_OF_PERICENTER":"63.9498","OBJECT_ID":"2020-012M","INCLINATION":"53.0548","TLE_LINE1":"1 45189U 20012M   21323.22868596 -.00000158  00000-0  82720-5 0  9998","SITE":"AFETR","CENTER_NAME":"EARTH","PERIAPSIS":"545.970","TLE_LINE2":"2 45189  53.0548 261.1829 0001795  63.9498 296.1676 15.06400170 95201","DECAY_DATE":null,"RCS_SIZE":"LARGE","ECCENTRICITY":"0.00017950","GP_ID":"190073629","PERIOD":"95.592","EPOCH":"2021-11-19T05:29:18.466944","MEAN_MOTION_DDOT":"0.0000000000000","MEAN_ELEMENT_THEORY":"SGP4","MEAN_MOTION":"15.06400170","REF_FRAME":"TEME","OBJECT_TYPE":"PAYLOAD"},{"RA_OF_ASC_NODE":"220.2098","MEAN_MOTION_DOT":"-0.00000041","OBJECT_NAME":"STARLINK-1234","CLASSIFICATION_TYPE":"U","APOAPSIS":"548.472","ELEMENT_SET_NO":"999","TIME_SYSTEM":"UTC","NORAD_CAT_ID":"45190","SEMIMAJOR_AXIS":"6925.371","INCLINATION":"53.0545","SITE":"AFETR","TLE_LINE1":"1 45190U 20012N   21323.44616480 -.00000041  00000-0  16187-4 0  9991","CENTER_NAME":"EARTH","COUNTRY_CODE":"US","LAUNCH_DATE":"2020-02-17","MEAN_ANOMALY":"289.5440","EPHEMERIS_TYPE":"0","BSTAR":"0.00001618700000","REV_AT_EPOCH":"9847","FILE":"3219209","OBJECT_ID":"2020-012N","ARG_OF_PERICENTER":"70.5742","DECAY_DATE":null,"RCS_SIZE":"LARGE","PERIAPSIS":"545.999","TLE_LINE2":"2 45190  53.0545 220.2098 0001785  70.5742 289.5440 15.06392837 98476","GP_ID":"190073380","PERIOD":"95.593","MEAN_MOTION_DDOT":"0.0000000000000","EPOCH":"2021-11-19T10:42:28.638720","OBJECT_TYPE":"PAYLOAD","MEAN_ELEMENT_THEORY":"SGP4","MEAN_MOTION":"15.06392837","REF_FRAME":"TEME","ECCENTRICITY":"0.00017850"}];
